[{"OBJECT_NAME":"STARLINK-5598","OBJECT_ID":"2023-014AG","EPOCH":"2026-03-09T10:19:02.756928","MEAN_MOTION":14.98322418,"ECCENTRICITY":0.00036198,"INCLINATION":69.9992,"RA_OF_ASC_NODE":85.1003,"ARG_OF_PERICENTER":272.2762,"MEAN_ANOMALY":87.7982,"EPHEMERIS_TYPE":0,"CLASSIFICATION_TYPE":"U","NORAD_CAT_ID":55421,"ELEMENT_SET_NO":999,"REV_AT_EPOCH":17152,"BSTAR":0.00015150647,"MEAN_MOTION_DOT":1.715e-5,"MEAN_MOTION_DDOT":0},{"OBJECT_NAME":"SL-16 DEB","OBJECT_ID":"1992-093Q","EPOCH":"2026-03-09T20:54:01.402848","MEAN_MOTION":15.00181451,"ECCENTRICITY":0.00550249,"INCLINATION":71.1124,"RA_OF_ASC_NODE":226.4429,"ARG_OF_PERICENTER":133.8558,"MEAN_ANOMALY":343.0626,"EPHEMERIS_TYPE":0,"CLASSIFICATION_TYPE":"U","NORAD_CAT_ID":22327,"ELEMENT_SET_NO":999,"REV_AT_EPOCH":74843,"BSTAR":0.0011337635,"MEAN_MOTION_DOT":0.00014594,"MEAN_MOTION_DDOT":0}]
